LEMUR-1                 
1 40044U 14033AL  22274.51980903  .00001856  00000+0  27536-3 0  9990
2 40044  97.6596  97.3582 0058235 174.2654 185.9235 14.75044190445115
LEMUR-2-XIAOQING        
1 41871U 16062C   22274.06055009  .00044963  00000+0  10382-2 0  9999
2 41871  51.6334 197.1033 0001639 347.0394  13.0549 15.42078795326223
LEMUR-2-SOKOLSKY        
1 41872U 16062D   22274.22820028  .00046296  00000+0  10769-2 0  9999
2 41872  51.6771 206.5457 0003278 105.8905 254.2442 15.41842514326210
LEMUR-2-ANUBHAVTHAKUR   
1 41873U 16062E   22274.36131478  .00011063  00000+0  39888-3 0  9997
2 41873  51.6784 253.4289 0006600 300.9619  59.0713 15.29005041325539
LEMUR-2-WINGO           
1 41874U 16062F   22274.24341446  .00033495  00000+0  81446-3 0  9993
2 41874  51.6467 207.3649 0007478 231.4001 128.6315 15.40633944326111
LEMUR-2-JOBANPUTRA      
1 41991U 17008AV  22274.42798294  .00020478  00000+0  59762-3 0  9994
2 41991  97.2481 333.9600 0005895 201.0990 159.0012 15.35345458312422
LEMUR-2-SPIRE-MINIONS   
1 41992U 17008AW  22274.40995566  .00029027  00000+0  73474-3 0  9999
2 41992  97.2568 338.8593 0005183 187.6686 172.4482 15.39696597312691
LEMUR-2-SATCHMO         
1 41993U 17008AX  22274.15243708  .00017966  00000+0  54881-3 0  9996
2 41993  97.2495 334.0940 0005429 202.3004 157.8004 15.33931107312406
LEMUR-2-SMITA-SHARAD    
1 41994U 17008AY  22274.13770273  .00032066  00000+0  81240-3 0  9994
2 41994  97.2557 338.3487 0005242 189.0155 171.0998 15.39648390312641
LEMUR-2-RDEATON         
1 41995U 17008AZ  22274.12533482  .00016352  00000+0  50224-3 0  9991
2 41995  97.2525 334.3025 0005840 218.2540 141.8289 15.33775697313080
LEMUR-2-TACHIKOMA       
1 41996U 17008BA  22274.43405579  .00022046  00000+0  57069-3 0  9992
2 41996  97.2601 338.8847 0005498 205.4094 154.6882 15.39061597312564
LEMUR-2-NOGUECORREIG    
1 41997U 17008BB  22274.16863287  .00029051  00000+0  73268-3 0  9999
2 41997  97.2581 339.1416 0005531 205.5904 154.5069 15.39805792312667
LEMUR-2-MIA-GRACE       
1 41998U 17008BC  22274.13449940  .00016355  00000+0  50511-3 0  9992
2 41998  97.2506 333.8722 0005727 220.8011 139.2804 15.33600837312307
LEMUR-2-ANGELA          
1 42752U 17019B   22274.55363851  .00037452  00000+0  73924-3 0  9999
2 42752  51.6323  80.0695 0005129  87.5697 272.5877 15.46782485297577
LEMUR-2-JENNYBARNA      
1 42753U 17019C   22274.38907125  .00092118  00000+0  10127-2 0  9994
2 42753  51.6266  47.1144 0001784  39.7084 320.4040 15.62406484297956
LEMUR-2-ROBMOORE        
1 42754U 17019D   22274.51908968  .00026835  00000+0  55335-3 0  9990
2 42754  51.6336  82.0410 0004574  92.7315 267.4196 15.45681849297521
LEMUR-2-SPIROVISION     
1 42755U 17019E   22274.63618568  .00103807  00000+0  11793-2 0  9992
2 42755  51.6329  46.9315 0002714  31.0256  62.5046 15.61504263297891
LEMUR-2-SHAINAJOHL      
1 42771U 17036G   22274.06264946  .00025768  00000+0  80512-3 0  9998
2 42771  97.1918 312.7088 0008970 302.8412  57.1966 15.33114493293159
LEMUR-2-XUENITERENCE    
1 42772U 17036H   22274.57331669  .00024841  00000+0  73182-3 0  9998
2 42772  97.1830 313.4207 0008196 294.9431  65.0961 15.34993884293283
LEMUR-2-LUCYBRYCE       
1 42773U 17036J   22274.35702242  .00020022  00000+0  67742-3 0  9996
2 42773  97.1948 313.0200 0009313 303.8411  56.1944 15.30601139293156
LEMUR-2-KUNGFOO         
1 42774U 17036K   22274.56524240  .00020183  00000+0  62427-3 0  9993
2 42774  97.1912 313.6699 0008345 297.8822  62.1576 15.33490446293257
LEMUR-2-LYNSEY-SYMO     
1 42779U 17036Q   22274.12829396  .00023769  00000+0  66191-3 0  9995
2 42779  97.1934 318.0642 0006340 296.8369  63.2227 15.36780303293455
LEMUR-2-LISASAURUS      
1 42780U 17036R   22274.07791402  .00034057  00000+0  10515-2 0  9997
2 42780  97.1939 314.3582 0007382 311.4923  48.5686 15.33449773293221
LEMUR-2-SAM-AMELIA      
1 42781U 17036S   22274.08558529  .00013255  00000+0  44621-3 0  9993
2 42781  97.1939 314.9468 0008085 310.6756  49.3782 15.30862994293235
LEMUR-2-MCPEAKE         
1 42782U 17036T   22274.08173583  .00023727  00000+0  71657-3 0  9991
2 42782  97.1921 316.1251 0006647 304.0426  56.0185 15.34229060293343
LEMUR-2-GREENBERG       
1 42837U 17042N   22274.56489241  .00003237  00000+0  30765-3 0  9992
2 42837  97.4161 126.3160 0012941   9.2199 350.9257 14.94068778284111
LEMUR-2-ANDIS           
1 42838U 17042P   22274.56054630  .00003403  00000+0  32293-3 0  9996
2 42838  97.4147 126.2447 0013018   9.0510 351.0943 14.94092523284113
LEMUR-2-MONSON          
1 42839U 17042Q   22274.52858183  .00003831  00000+0  36505-3 0  9993
2 42839  97.4156 125.9606 0012604   9.5532 350.5926 14.93862087284086
LEMUR-2-FURIAUS         
1 42840U 17042R   22274.52981041  .00003473  00000+0  33475-3 0  9990
2 42840  97.4192 126.3195 0013033  10.1322 350.0159 14.93458950284081
LEMUR-2-PETERG          
1 42841U 17042S   22274.54477521  .00002554  00000+0  24473-3 0  9993
2 42841  97.4219 127.4807 0012497   5.6958 354.4402 14.93926343284154
LEMUR-2-DEMBITZ         
1 42842U 17042T   22274.57635572  .00003094  00000+0  29267-3 0  9995
2 42842  97.4186 127.3813 0012522   5.7969 354.3395 14.94293767284165
LEMUR-2-ZACHARY         
1 42845U 17042W   22274.53117793  .00004951  00000+0  45672-3 0  9995
2 42845  97.4071 126.4836 0012481   7.1376 353.0021 14.95016996284203
LEMUR-2-MCCAFFERTY      
1 43123U 18004N   22274.49713425  .00030212  00000+0  76048-3 0  9993
2 43123  97.3692 354.3338 0005131 330.9265  29.1694 15.39860316262876
LEMUR-2-PETERWEBSTER    
1 43124U 18004P   22274.17108388  .00030125  00000+0  77719-3 0  9994
2 43124  97.3691 353.5785 0005439 333.4225  26.6741 15.39105443262797
LEMUR-2-BROWNCOW        
1 43125U 18004Q   22274.18360196  .00033183  00000+0  78877-3 0  9996
2 43125  97.3748 355.6059 0004842 323.6986  36.3932 15.41582154262904
LEMUR-2-DAVEWILSON      
1 43126U 18004R   22274.21373773  .00033508  00000+0  78572-3 0  9999
2 43126  97.3734 355.4730 0005048 324.2907  35.8002 15.41989826262902
LEMUR-2-MARSHALL        
1 43165U 18010C   22274.56003021  .00020151  00000+0  64375-3 0  9999
2 43165  82.9126 325.4310 0022914 315.3266  44.6129 15.32073532260714
LEMUR-2-TALLHAMN-ATC    
1 43167U 18010E   22274.41108723  .00013810  00000+0  50265-3 0  9997
2 43167  82.9176 332.2143 0018980 344.1786  15.8858 15.27928368260287
LEMUR-2-JIN-LUEN        
1 43182U 18014C   22274.23031129  .00004627  00000+0  37811-3 0  9991
2 43182  97.6377 176.0460 0012502 319.8426  40.1873 14.99803195254740
LEMUR-2-URAMCHANSOL     
1 43183U 18014D   22274.17509073  .00005536  00000+0  45091-3 0  9992
2 43183  97.6355 176.2189 0014251 309.8575  50.1394 14.99828731254746
LEMUR-2-KADI            
1 43184U 18014E   22274.43952895  .00004469  00000+0  36988-3 0  9995
2 43184  97.6357 176.3094 0012821 312.8075  47.2069 14.99327372254779
LEMUR-2-THENICKMOLO     
1 43185U 18014F   22274.46363594  .00006008  00000+0  49285-3 0  9996
2 43185  97.6352 176.5852 0011454 303.8428  56.1704 14.99549700254789
LEMUR-2-VU              
1 43558U 18046E   22274.49011843  .00052885  00000+0  79802-3 0  9997
2 43558  51.6367   0.8532 0007188  48.3889 311.7717 15.54199598235998
LEMUR-2-ALEXANDER       
1 43559U 18046F   22274.48371478  .00102994  00000+0  13894-2 0  9995
2 43559  51.6381 357.8500 0005692  53.4837 306.6678 15.56961980235817
LEMUR-2-YUASA           
1 43560U 18046G   22274.48880346  .00094927  00000+0  13453-2 0  9993
2 43560  51.6391   0.8599 0005102  60.1122 300.0376 15.55672194235998
LEMUR-2-TOMHENDERSON    
1 43561U 18046H   22274.51379735  .00051532  00000+0  84824-3 0  9999
2 43561  51.6401   5.4780 0005533  63.0215 297.1339 15.51812215235493
LEMUR-2-ZUPANSKI        
1 43695U 18088F   22274.41141404  .00020235  00000+0  66840-3 0  9996
2 43695  85.0270 242.5672 0016170 101.1886 259.1179 15.31134171216100
LEMUR-2-CHANUSIAK       
1 43697U 18088H   22274.42694413  .00025898  00000+0  81707-3 0  9991
2 43697  85.0331 242.5428 0015920  83.8906 276.4155 15.32603719216230
LEMUR-2-ORZULAK         
1 43731U 18096N   22274.23463476  .00055345  00000+0  93472-3 0  9993
2 43731  97.3596   0.9367 0010368  15.2014 344.9548 15.51390781214605
LEMUR-2-KOBYSZCZE       
1 43732U 18096P   22274.53381470  .00060659  00000+0  10070-2 0  9996
2 43732  97.3607   1.7540 0010375  17.2842 342.8761 15.51851079214673
LEMUR-2-DULY            
1 43745U 18096AC  22274.50456794  .00045481  00000+0  82239-3 0  9992
2 43745  97.3596   1.2103 0011812  19.1620 341.0073 15.49483519214658
LEMUR-2-VLADIMIR        
1 43746U 18096AD  22274.52507472  .00076338  00000+0  11368-2 0  9994
2 43746  97.3589   2.3652 0009072   7.7424 352.3968 15.54817683214750
LEMUR-2-CHRISTINAHOLT   
1 43882U 18111G   22274.46858931  .00006295  00000+0  50917-3 0  9994
2 43882  97.6588 180.4964 0008597 303.6149  56.4254 15.00095705205653
LEMUR-2-TINYKEV         
1 43883U 18111H   22274.45543581  .00007437  00000+0  59487-3 0  9996
2 43883  97.6587 180.7063 0010965 294.5014  65.5066 15.00442775205663
LEMUR-2-REMY-COLTON     
1 43884U 18111J   22274.53877903  .00006211  00000+0  49676-3 0  9992
2 43884  97.6601 181.3149 0005673  24.3536 335.7955 15.00549833203706
LEMUR-2-GUSTAVO         
1 43885U 18111K   22274.39274652  .00006063  00000+0  48983-3 0  9994
2 43885  97.6614 180.7970 0011950 304.7379  55.2718 15.00130471205652
LEMUR-2-ZO              
1 43886U 18111L   22274.31253015  .00005989  00000+0  48213-3 0  9999
2 43886  97.6693 181.0163 0014360 324.1769  35.8490 15.00244725205654
LEMUR-2-NATALIEMURRAY   
1 43887U 18111M   22274.46704102  .00006125  00000+0  49230-3 0  9997
2 43887  97.6617 181.4823 0006871 279.7487  80.2961 15.00356125205697
LEMUR-2-SARAHBETTYBOO   
1 43888U 18111N   22274.29236045  .00007319  00000+0  58549-3 0  9994
2 43888  97.6670 181.5486 0013171 358.3154   1.8023 15.00423731205673
LEMUR-2-DAISY-HARPER    
1 43889U 18111P   22274.28933503  .00007252  00000+0  57968-3 0  9997
2 43889  97.6660 181.7438 0012617   3.2472 356.8831 15.00464089205676
